NORAD_CAT_ID,OBJECT_NAME,OBJECT_TYPE,EPOCH,MEAN_MOTION,ECCENTRICITY,INCLINATION,RA_OF_ASC_NODE,ARG_OF_PERICENTER,MEAN_ANOMALY,BSTAR,MEAN_MOTION_DOT,MEAN_MOTION_DDOT,TLE_LINE0,TLE_LINE1,TLE_LINE2,SEMIMAJOR_AXIS,PERIOD,APOGEE,PERIGEE,DECAYED
52275.0,STARLINK-3784,PAYLOAD,2022-10-09 18:42:17,15.08839213,0.0002243,53.2187,306.7189,37.5945,322.5204,5.4459e-05,5.79e-06,0.0,0 STARLINK-3784,1 52275U 22041Q   22282.77936740  .00000579  00000-0  54459-4 0  9991,2 52275  53.2187 306.7189 0002243  37.5945 322.5204 15.08839213 26126,6917.8830000000025,95.438,541.299,538.196,0.0
52275.0,STARLINK-3784,PAYLOAD,2022-10-10 09:00:45,15.08841829,0.0001972,53.2187,304.0424,38.4708,321.6424,0.00011633,1.564e-05,0.0,0 STARLINK-3784,1 52275U 22041Q   22283.37552327  .00001564  00000-0  11633-3 0  9994,2 52275  53.2187 304.0424 0001972  38.4708 321.6424 15.08841829 27428,6917.875,95.437,541.104,538.376,0.0
52275.0,STARLINK-3784,PAYLOAD,2022-10-10 18:33:04,15.08833429,0.0002114,53.2185,302.2591,37.7864,322.3276,2.8328e-05,1.63e-06,0.0,0 STARLINK-3784,1 52275U 22041Q   22283.77297216  .00000163  00000-0  28328-4 0  9995,2 52275  53.2185 302.2591 0002114  37.7864 322.3276 15.08833429 26277,6917.9,95.438,541.2280000000002,538.303,0.0
52275.0,STARLINK-3784,PAYLOAD,2022-10-11 08:51:33,15.08831672,0.0002254999999999,53.2186,299.5826,35.1471,324.967,4.8447e-05,4.83e-06,0.0,0 STARLINK-3784,1 52275U 22041Q   22284.36913551  .00000483  00000-0  48447-4 0  9997,2 52275  53.2186 299.5826 0002255  35.1471 324.9670 15.08831672 26363,6917.906,95.438,541.331,538.211,0.0
52275.0,STARLINK-3784,PAYLOAD,2022-10-12 00:45:25,15.08833407,0.0002144,53.2183,296.6090000000001,38.0589,322.0555,-6.839300000000001e-05,-1.376e-05,0.0,0 STARLINK-3784,1 52275U 22041Q   22285.03154111 -.00001376  00000-0 -68393-4 0  9997,2 52275  53.2183 296.6090 0002144  38.0589 322.0555 15.08833407 27674,6917.901,95.438,541.249,538.2819999999998,0.0
52275.0,STARLINK-3784,PAYLOAD,2022-10-12 07:06:57,15.08838744,0.0002286,53.2184,295.42,37.2073,322.9077,2.2747e-05,7.4e-07,0.0,0 STARLINK-3784,1 52275U 22041Q   22285.29649568  .00000074  00000-0  22747-4 0  9995,2 52275  53.2184 295.4200 0002286  37.2073 322.9077 15.08838744 26509,6917.884,95.438,541.331,538.168,0.0
52275.0,STARLINK-3784,PAYLOAD,2022-10-12 18:14:38,15.08848625,0.0002126999999999,53.2183,293.3384,39.5499,320.5648,7.6413e-05,9.28e-06,0.0,0 STARLINK-3784,1 52275U 22041Q   22285.76016669  .00000928  00000-0  76413-4 0  9994,2 52275  53.2183 293.3384 0002127  39.5499 320.5648 15.08848625 27787,6917.854,95.437,541.19,538.248,0.0
52275.0,STARLINK-3784,PAYLOAD,2022-10-13 03:46:57,15.08837879,0.0002162,53.2183,291.5544,40.3076,319.8076,0.00012328,1.674e-05,0.0,0 STARLINK-3784,1 52275U 22041Q   22286.15761273  .00001674  00000-0  12328-3 0  9999,2 52275  53.2183 291.5544 0002162  40.3076 319.8076 15.08837879 27847,6917.887,95.438,541.248,538.256,0.0
52275.0,STARLINK-3784,PAYLOAD,2022-10-13 11:43:53,15.08837455,0.0002056999999999,53.2181,290.0664,42.6135,317.5016,8.0091e-05,9.87e-06,0.0,0 STARLINK-3784,1 52275U 22041Q   22286.48881414  .00000987  00000-0  80091-4 0  9994,2 52275  53.2181 290.0664 0002057  42.6135 317.5016 15.08837455 26686,6917.888000000001,95.438,541.1759999999998,538.33,0.0
52275.0,STARLINK-3784,PAYLOAD,2022-10-14 05:13:07,15.08840737,0.0001940999999999,53.2179,286.7959,39.0817,321.0315,6.715100000000001e-05,7.81e-06,0.0,0 STARLINK-3784,1 52275U 22041Q   22287.21745239  .00000781  00000-0  67151-4 0  9994,2 52275  53.2179 286.7959 0001941  39.0817 321.0315 15.08840737 28007,6917.878000000002,95.438,541.086,538.4,0.0
52275.0,STARLINK-3784,PAYLOAD,2022-10-14 11:34:40,15.08840831,0.0002115,53.2193,285.6063,37.1576,322.9562,1.2159000000000003e-05,-9.5e-07,0.0,0 STARLINK-3784,1 52275U 22041Q   22287.48241450 -.00000095  00000-0  12159-4 0  9996,2 52275  53.2193 285.6063 0002115  37.1576 322.9562 15.08840831 26830,6917.878000000002,95.438,541.206,538.28,0.0
52275.0,STARLINK-3784,PAYLOAD,2022-10-15 11:25:26,15.08852328,0.0002147,53.2181,281.147,36.3071,323.8066,6.9026e-05,8.11e-06,0.0,0 STARLINK-3784,1 52275U 22041Q   22288.47600089  .00000811  00000-0  69026-4 0  9993,2 52275  53.2181 281.1470 0002147  36.3071 323.8066 15.08852328 26985,6917.843000000003,95.437,541.193,538.222,0.0
52275.0,STARLINK-3784,PAYLOAD,2022-10-16 00:08:31,15.08842107,0.0002002,53.2174,278.768,38.3394,321.774,3.5287e-05,2.73e-06,0.0,0 STARLINK-3784,1 52275U 22041Q   22289.00592591  .00000273  00000-0  35287-4 0  9995,2 52275  53.2174 278.7680 0002002  38.3394 321.7740 15.08842107 28276,6917.874,95.437,541.124,538.354,0.0
52275.0,STARLINK-3784,PAYLOAD,2022-10-16 06:30:05,15.08822463,0.0001984,53.2179,277.5783,39.7918,320.3219,4.7845e-06,-2.12e-06,0.0,0 STARLINK-3784,1 52275U 22041Q   22289.27089927 -.00000212  00000-0  47845-5 0  9996,2 52275  53.2179 277.5783 0001984  39.7918 320.3219 15.08822463 27107,6917.934,95.439,541.172,538.4259999999998,0.0
52275.0,STARLINK-3784,PAYLOAD,2022-10-16 16:02:25,15.08820527,0.0002183,53.2178,275.7943,37.3581,322.7562,-0.00010304,-1.927e-05,0.0,0 STARLINK-3784,1 52275U 22041Q   22289.66834758 -.00001927  00000-0 -10304-3 0  9992,2 52275  53.2178 275.7943 0002183  37.3581 322.7562 15.08820527 27168,6917.94,95.439,541.315,538.295,0.0
52275.0,STARLINK-3784,PAYLOAD,2022-10-17 01:34:43,15.08827134,0.0002246,53.2184,274.0099,38.6754,321.4399,3.7564e-05,3.09e-06,0.0,0 STARLINK-3784,1 52275U 22041Q   22290.06578042  .00000309  00000-0  37564-4 0  9998,2 52275  53.2184 274.0099 0002246  38.6754 321.4399 15.08827134 28431,6917.92,95.438,541.3380000000002,538.231,0.0
52275.0,STARLINK-3784,PAYLOAD,2022-10-17 07:56:15,15.08839213,0.0002171,53.2179,272.8209,39.8644,320.2508,-5.736900000000003e-06,-3.8e-06,0.0,0 STARLINK-3784,1 52275U 22041Q   22290.33073592 -.00000380  00000-0 -57369-5 0  9995,2 52275  53.2179 272.8209 0002171  39.8644 320.2508 15.08839213 28476,6917.8830000000025,95.438,541.25,538.246,0.0
52275.0,STARLINK-3784,PAYLOAD,2022-10-18 06:11:39,15.08832659,0.0002108,53.2179,268.659,40.6442,319.4707,0.00013102,1.797e-05,0.0,0 STARLINK-3784,1 52275U 22041Q   22291.25809658  .00001797  00000-0  13102-3 0  9993,2 52275  53.2179 268.6590 0002108  40.6442 319.4707 15.08832659 27408,6917.903,95.438,541.226,538.31,0.0
52275.0,STARLINK-3784,PAYLOAD,2022-10-18 18:54:45,15.08830324,0.0002203,53.2182,266.279,41.2823,318.8335,6.9276e-05,8.14e-06,0.0,0 STARLINK-3784,1 52275U 22041Q   22291.78802529  .00000814  00000-0  69276-4 0  9994,2 52275  53.2182 266.2790 0002203  41.2823 318.8335 15.08830324 27489,6917.91,95.438,541.299,538.251,0.0
52275.0,STARLINK-3784,PAYLOAD,2022-10-19 07:37:49,15.08842742,0.00022,53.2185,263.9006,40.2728,319.8427,0.00011086,1.477e-05,0.0,0 STARLINK-3784,1 52275U 22041Q   22292.31793786  .00001477  00000-0  11086-3 0  9999,2 52275  53.2185 263.9006 0002200  40.2728 319.8427 15.08842742 27565,6917.871999999999,95.437,541.259,538.215,0.0
52275.0,STARLINK-3784,PAYLOAD,2022-10-19 15:34:43,15.08869969,0.0002416,53.2184,262.4135,36.4467,323.6689,0.00025495,3.775e-05,0.0,0 STARLINK-3784,1 52275U 22041Q   22292.64911290  .00003775  00000-0  25495-3 0  9999,2 52275  53.2184 262.4135 0002416  36.4467 323.6689 15.08869969 27616,6917.7890000000025,95.436,541.325,537.982,0.0
52275.0,STARLINK-3784,PAYLOAD,2022-10-20 04:17:49,15.08843203,0.0002044999999999,53.2187,260.0325,29.0276,331.083,3.1662e-05,2.16e-06,0.0,0 STARLINK-3784,1 52275U 22041Q   22293.17905041  .00000216  00000-0  31662-4 0  9996,2 52275  53.2187 260.0325 0002045  29.0276 331.0830 15.08843203 28905,6917.871,95.437,541.15,538.321,0.0
52275.0,STARLINK-3784,PAYLOAD,2022-10-20 07:28:36,15.088432,0.0001796,53.2187,259.4365,35.8358,324.2755,3.9934e-05,3.48e-06,0.0,0 STARLINK-3784,1 52275U 22041Q   22293.31152892  .00000348  00000-0  39934-4 0  9996,2 52275  53.2187 259.4365 0001796  35.8358 324.2755 15.08843200 27714,6917.871,95.437,540.9780000000002,538.493,0.0
52275.0,STARLINK-3784,PAYLOAD,2022-10-21 04:08:36,15.08844763,0.0002275,53.2184,255.5736,37.4322,322.6828,6.1814e-05,6.96e-06,0.0,0 STARLINK-3784,1 52275U 22041Q   22294.17264646  .00000696  00000-0  61814-4 0  9990,2 52275  53.2184 255.5736 0002275  37.4322 322.6828 15.08844763 27844,6917.866,95.437,541.305,538.1569999999998,0.0
52275.0,STARLINK-3784,PAYLOAD,2022-10-22 03:59:23,15.08839466,0.0002316,53.2187,251.1132,36.4332,323.6818,-3.4924e-05,-8.44e-06,0.0,0 STARLINK-3784,1 52275U 22041Q   22295.16624566 -.00000844  00000-0 -34924-4 0  9990,2 52275  53.2187 251.1132 0002316  36.4332 323.6818 15.08839466 27995,6917.882,95.438,541.349,538.145,0.0
52275.0,STARLINK-3784,PAYLOAD,2022-10-23 03:50:11,15.0884075,0.0002418,53.2188,246.6549,35.7111,324.4042,-2.5089e-05,-6.88e-06,0.0,0 STARLINK-3784,1 52275U 22041Q   22296.15985087 -.00000688  00000-0 -25089-4 0  9996,2 52275  53.2188 246.6549 0002418  35.7111 324.4042 15.08840750 28141,6917.878000000002,95.438,541.4159999999998,538.07,0.0
52275.0,STARLINK-3784,PAYLOAD,2022-10-23 13:22:30,15.08834097,0.0002354,53.2187,244.8708,40.4344,319.6822,1.9783e-05,2.6e-07,0.0,0 STARLINK-3784,1 52275U 22041Q   22296.55729487  .00000026  00000-0  19783-4 0  9998,2 52275  53.2187 244.8708 0002354  40.4344 319.6822 15.08834097 28203,6917.898,95.438,541.3919999999998,538.135,0.0
52275.0,STARLINK-3784,PAYLOAD,2022-10-24 03:40:57,15.08846388,0.0002399999999999,53.2179,242.1934,43.7842,316.334,0.00016702,2.371e-05,0.0,0 STARLINK-3784,1 52275U 22041Q   22297.15344297  .00002371  00000-0  16702-3 0  9999,2 52275  53.2179 242.1934 0002400  43.7842 316.3340 15.08846388 29506,6917.861,95.437,541.386,538.066,0.0
52275.0,STARLINK-3784,PAYLOAD,2022-10-24 06:51:44,15.088394699999998,0.000216,53.2193,241.6001,40.1713,319.9439,9.3878e-05,1.206e-05,0.0,0 STARLINK-3784,1 52275U 22041Q   22297.28592872  .00001206  00000-0  93878-4 0  9993,2 52275  53.2193 241.6001 0002160  40.1713 319.9439 15.08839470 28312,6917.882,95.438,541.241,538.253,0.0
